{
  "norad_id": 65670,
  "name": "STARLINK-35359",
  "history": [
    {
      "epoch": "2026-05-06T13:27:00.008928Z",
      "apogee_km": 550.5595194602201,
      "perigee_km": 548.4645983848022,
      "latitude_deg": -3.249519001268198e-06,
      "longitude_deg": 104.91346912995424,
      "height_km": 553.322106727458,
      "semi_major_axis_km": 6927.649058922511,
      "eccentricity": 0.0001512,
      "inclination_deg": 97.5291,
      "raan_deg": 171.0828,
      "arg_perigee_deg": 135.2775,
      "mean_anomaly_deg": 224.8574,
      "mean_motion_rev_day": 15.05649705
    },
    {
      "epoch": "2026-05-07T13:22:30.072000Z",
      "apogee_km": 550.663781175881,
      "perigee_km": 548.3471775307853,
      "latitude_deg": 3.982092454862512e-05,
      "longitude_deg": 106.02613151447096,
      "height_km": 553.4961495126098,
      "semi_major_axis_km": 6927.642479353333,
      "eccentricity": 0.0001672,
      "inclination_deg": 97.5222,
      "raan_deg": 172.0533,
      "arg_perigee_deg": 142.9572,
      "mean_anomaly_deg": 217.1771,
      "mean_motion_rev_day": 15.0565185
    },
    {
      "epoch": "2026-05-08T13:17:59.758368Z",
      "apogee_km": 550.7395199950961,
      "perigee_km": 548.2081709921522,
      "latitude_deg": -8.51462830065162e-05,
      "longitude_deg": 107.14289037393587,
      "height_km": 553.6146794517684,
      "semi_major_axis_km": 6927.610845493624,
      "eccentricity": 0.0001827,
      "inclination_deg": 97.5214,
      "raan_deg": 173.0263,
      "arg_perigee_deg": 148.1023,
      "mean_anomaly_deg": 212.0314,
      "mean_motion_rev_day": 15.05662163
    },
    {
      "epoch": "2026-05-09T16:24:56.481120Z",
      "apogee_km": 550.9844699543437,
      "perigee_km": 548.2951070050549,
      "latitude_deg": -4.4760669940935896e-05,
      "longitude_deg": 60.39293311998114,
      "height_km": 553.9561745210584,
      "semi_major_axis_km": 6927.776788479699,
      "eccentricity": 0.0001941,
      "inclination_deg": 97.5135,
      "raan_deg": 174.1263,
      "arg_perigee_deg": 158.315,
      "mean_anomaly_deg": 201.8159,
      "mean_motion_rev_day": 15.05608065
    },
    {
      "epoch": "2026-05-10T16:20:23.965152Z",
      "apogee_km": 550.5843815468479,
      "perigee_km": 548.4007927009861,
      "latitude_deg": -5.8930234078497674e-05,
      "longitude_deg": 61.51418072962812,
      "height_km": 553.5312080220208,
      "semi_major_axis_km": 6927.629587123916,
      "eccentricity": 0.0001576,
      "inclination_deg": 97.5097,
      "raan_deg": 175.0946,
      "arg_perigee_deg": 152.8665,
      "mean_anomaly_deg": 207.2644,
      "mean_motion_rev_day": 15.05656053
    },
    {
      "epoch": "2026-05-11T13:04:29.931168Z",
      "apogee_km": 550.3968168287856,
      "perigee_km": 548.5790080517609,
      "latitude_deg": -5.060904800926302e-05,
      "longitude_deg": 110.48116504778598,
      "height_km": 553.3451046879003,
      "semi_major_axis_km": 6927.624912440273,
      "eccentricity": 0.0001312,
      "inclination_deg": 97.5077,
      "raan_deg": 175.938,
      "arg_perigee_deg": 150.3735,
      "mean_anomaly_deg": 209.7566,
      "mean_motion_rev_day": 15.05657577
    },
    {
      "epoch": "2026-05-12T01:50:05.925408Z",
      "apogee_km": 550.5235463352828,
      "perigee_km": 548.4581433696194,
      "latitude_deg": -2.1052688710965408e-05,
      "longitude_deg": -80.92564935289752,
      "height_km": 553.4159440679646,
      "semi_major_axis_km": 6927.627844852451,
      "eccentricity": 0.00014907,
      "inclination_deg": 97.5072,
      "raan_deg": 176.4552,
      "arg_perigee_deg": 146.209,
      "mean_anomaly_deg": 213.9232,
      "mean_motion_rev_day": 15.05656621
    },
    {
      "epoch": "2026-05-13T20:54:00.002304Z",
      "apogee_km": 550.5009863975338,
      "perigee_km": 548.4767341211664,
      "latitude_deg": 6.624074646906327e-05,
      "longitude_deg": -6.92409771835954,
      "height_km": 553.367150914409,
      "semi_major_axis_km": 6927.62586025935,
      "eccentricity": 0.0001461,
      "inclination_deg": 97.4968,
      "raan_deg": 178.2007,
      "arg_perigee_deg": 143.275,
      "mean_anomaly_deg": 216.8578,
      "mean_motion_rev_day": 15.05657268
    }
  ]
}